CCSDS_OMM_VERS = 2.0
CREATION_DATE  = 
ORIGINATOR     = 

OBJECT_NAME    = COSMOS 2242
OBJECT_ID      = 1993-024A
CENTER_NAME    = EARTH
REF_FRAME      = TEME
TIME_SYSTEM    = UTC
MEAN_ELEMENT_THEORY = SGP/SGP4

EPOCH          = 2026-04-01T10:26:41.059680
MEAN_MOTION    = 14.96649544
ECCENTRICITY   = .0015294
INCLINATION    = 82.5167
RA_OF_ASC_NODE = 244.9539
ARG_OF_PERICENTER = 225.3858
MEAN_ANOMALY   = 134.6117

EPHEMERIS_TYPE = 0
CLASSIFICATION_TYPE = U
NORAD_CAT_ID   = 22626
ELEMENT_SET_NO = 999
REV_AT_EPOCH   = 78379
BSTAR          = .23864E-3
MEAN_MOTION_DOT = .2752E-4
MEAN_MOTION_DDOT = 0

CCSDS_OMM_VERS = 2.0
CREATION_DATE  = 
ORIGINATOR     = 

OBJECT_NAME    = SL-16 R/B
OBJECT_ID      = 1993-059B
CENTER_NAME    = EARTH
REF_FRAME      = TEME
TIME_SYSTEM    = UTC
MEAN_ELEMENT_THEORY = SGP/SGP4

EPOCH          = 2026-04-01T01:30:32.163264
MEAN_MOTION    = 14.17234444
ECCENTRICITY   = .001724
INCLINATION    = 70.9912
RA_OF_ASC_NODE = 323.9489
ARG_OF_PERICENTER = 183.7702
MEAN_ANOMALY   = 176.3295

EPHEMERIS_TYPE = 0
CLASSIFICATION_TYPE = U
NORAD_CAT_ID   = 22803
ELEMENT_SET_NO = 999
REV_AT_EPOCH   = 68270
BSTAR          = -.32747E-4
MEAN_MOTION_DOT = -.114E-5
MEAN_MOTION_DDOT = 0

CCSDS_OMM_VERS = 2.0
CREATION_DATE  = 
ORIGINATOR     = 

OBJECT_NAME    = ARIANE 40 R/B
OBJECT_ID      = 1993-061H
CENTER_NAME    = EARTH
REF_FRAME      = TEME
TIME_SYSTEM    = UTC
MEAN_ELEMENT_THEORY = SGP/SGP4

EPOCH          = 2026-04-01T11:07:03.700992
MEAN_MOTION    = 14.32873023
ECCENTRICITY   = .0010196
INCLINATION    = 98.4875
RA_OF_ASC_NODE = 159.8969
ARG_OF_PERICENTER = 210.9989
MEAN_ANOMALY   = 149.0595

EPHEMERIS_TYPE = 0
CLASSIFICATION_TYPE = U
NORAD_CAT_ID   = 22830
ELEMENT_SET_NO = 999
REV_AT_EPOCH   = 69736
BSTAR          = .96084E-4
MEAN_MOTION_DOT = .219E-5
MEAN_MOTION_DDOT = 0

CCSDS_OMM_VERS = 2.0
CREATION_DATE  = 
ORIGINATOR     = 

OBJECT_NAME    = COSMOS 2278
OBJECT_ID      = 1994-023A
CENTER_NAME    = EARTH
REF_FRAME      = TEME
TIME_SYSTEM    = UTC
MEAN_ELEMENT_THEORY = SGP/SGP4

EPOCH          = 2026-04-01T12:17:31.786080
MEAN_MOTION    = 14.14374740
ECCENTRICITY   = .0009277
INCLINATION    = 71.0508
RA_OF_ASC_NODE = 127.3512
ARG_OF_PERICENTER = 338.9736
MEAN_ANOMALY   = 21.1003

EPHEMERIS_TYPE = 0
CLASSIFICATION_TYPE = U
NORAD_CAT_ID   = 23087
ELEMENT_SET_NO = 999
REV_AT_EPOCH   = 64803
BSTAR          = -.2357E-4
MEAN_MOTION_DOT = -.92E-6
MEAN_MOTION_DDOT = 0

CCSDS_OMM_VERS = 2.0
CREATION_DATE  = 
ORIGINATOR     = 

OBJECT_NAME    = SL-16 R/B
OBJECT_ID      = 1994-023B
CENTER_NAME    = EARTH
REF_FRAME      = TEME
TIME_SYSTEM    = UTC
MEAN_ELEMENT_THEORY = SGP/SGP4

EPOCH          = 2026-04-01T06:22:28.948512
MEAN_MOTION    = 14.15017815
ECCENTRICITY   = .0005519
INCLINATION    = 71.0027
RA_OF_ASC_NODE = 23.4739
ARG_OF_PERICENTER = 265.3378
MEAN_ANOMALY   = 94.7115

EPHEMERIS_TYPE = 0
CLASSIFICATION_TYPE = U
NORAD_CAT_ID   = 23088
ELEMENT_SET_NO = 999
REV_AT_EPOCH   = 64928
BSTAR          = .16135E-3
MEAN_MOTION_DOT = .265E-5
MEAN_MOTION_DDOT = 0

CCSDS_OMM_VERS = 2.0
CREATION_DATE  = 
ORIGINATOR     = 

OBJECT_NAME    = SL-16 R/B
OBJECT_ID      = 1994-074B
CENTER_NAME    = EARTH
REF_FRAME      = TEME
TIME_SYSTEM    = UTC
MEAN_ELEMENT_THEORY = SGP/SGP4

EPOCH          = 2026-04-01T12:54:17.450208
MEAN_MOTION    = 14.79434123
ECCENTRICITY   = .0007538
INCLINATION    = 97.7074
RA_OF_ASC_NODE = 121.4268
ARG_OF_PERICENTER = 137.7539
MEAN_ANOMALY   = 23.4652

EPHEMERIS_TYPE = 0
CLASSIFICATION_TYPE = U
NORAD_CAT_ID   = 23343
ELEMENT_SET_NO = 999
REV_AT_EPOCH   = 69062
BSTAR          = .82972E-4
MEAN_MOTION_DOT = .57E-5
MEAN_MOTION_DDOT = 0

CCSDS_OMM_VERS = 2.0
CREATION_DATE  = 
ORIGINATOR     = 

OBJECT_NAME    = SL-16 R/B
OBJECT_ID      = 1994-077B
CENTER_NAME    = EARTH
REF_FRAME      = TEME
TIME_SYSTEM    = UTC
MEAN_ELEMENT_THEORY = SGP/SGP4

EPOCH          = 2026-04-01T00:38:01.673664
MEAN_MOTION    = 14.15568875
ECCENTRICITY   = .0001762
INCLINATION    = 70.9828
RA_OF_ASC_NODE = 305.4985
ARG_OF_PERICENTER = 194.4014
MEAN_ANOMALY   = 165.7059

EPHEMERIS_TYPE = 0
CLASSIFICATION_TYPE = U
NORAD_CAT_ID   = 23405
ELEMENT_SET_NO = 999
REV_AT_EPOCH   = 61939
BSTAR          = -.50402E-4
MEAN_MOTION_DOT = -.147E-5
MEAN_MOTION_DDOT = 0

CCSDS_OMM_VERS = 2.0
CREATION_DATE  = 
ORIGINATOR     = 

OBJECT_NAME    = ARIANE 40+ R/B
OBJECT_ID      = 1995-021B
CENTER_NAME    = EARTH
REF_FRAME      = TEME
TIME_SYSTEM    = UTC
MEAN_ELEMENT_THEORY = SGP/SGP4

EPOCH          = 2026-04-01T11:06:02.503872
MEAN_MOTION    = 14.39788663
ECCENTRICITY   = .0007884
INCLINATION    = 98.4458
RA_OF_ASC_NODE = 162.6321
ARG_OF_PERICENTER = 77.8865
MEAN_ANOMALY   = 292.8620

EPHEMERIS_TYPE = 0
CLASSIFICATION_TYPE = U
NORAD_CAT_ID   = 23561
ELEMENT_SET_NO = 999
REV_AT_EPOCH   = 62252
BSTAR          = .11263E-3
MEAN_MOTION_DOT = .31E-5
MEAN_MOTION_DDOT = 0

CCSDS_OMM_VERS = 2.0
CREATION_DATE  = 
ORIGINATOR     = 

OBJECT_NAME    = SL-16 R/B
OBJECT_ID      = 1995-058B
CENTER_NAME    = EARTH
REF_FRAME      = TEME
TIME_SYSTEM    = UTC
MEAN_ELEMENT_THEORY = SGP/SGP4

EPOCH          = 2026-04-01T09:18:28.041120
MEAN_MOTION    = 14.15498085
ECCENTRICITY   = .0010206
INCLINATION    = 71.0195
RA_OF_ASC_NODE = 132.6034
ARG_OF_PERICENTER = 83.9566
MEAN_ANOMALY   = 276.2719

EPHEMERIS_TYPE = 0
CLASSIFICATION_TYPE = U
NORAD_CAT_ID   = 23705
ELEMENT_SET_NO = 999
REV_AT_EPOCH   = 57106
BSTAR          = -.60933E-4
MEAN_MOTION_DOT = -.167E-5
MEAN_MOTION_DDOT = 0

CCSDS_OMM_VERS = 2.0
CREATION_DATE  = 
ORIGINATOR     = 

OBJECT_NAME    = SL-16 R/B
OBJECT_ID      = 1996-051B
CENTER_NAME    = EARTH
REF_FRAME      = TEME
TIME_SYSTEM    = UTC
MEAN_ELEMENT_THEORY = SGP/SGP4

EPOCH          = 2026-04-01T09:41:29.437152
MEAN_MOTION    = 14.12422367
ECCENTRICITY   = .0013278
INCLINATION    = 70.7583
RA_OF_ASC_NODE = 127.1635
ARG_OF_PERICENTER = 111.0059
MEAN_ANOMALY   = 249.2482

EPHEMERIS_TYPE = 0
CLASSIFICATION_TYPE = U
NORAD_CAT_ID   = 24298
ELEMENT_SET_NO = 999
REV_AT_EPOCH   = 52485
BSTAR          = .10128E-3
MEAN_MOTION_DOT = .138E-5
MEAN_MOTION_DDOT = 0

CCSDS_OMM_VERS = 2.0
CREATION_DATE  = 
ORIGINATOR     = 

OBJECT_NAME    = ORBVIEW 2 (SEASTAR)
OBJECT_ID      = 1997-037A
CENTER_NAME    = EARTH
REF_FRAME      = TEME
TIME_SYSTEM    = UTC
MEAN_ELEMENT_THEORY = SGP/SGP4

EPOCH          = 2026-04-01T10:03:59.520960
MEAN_MOTION    = 14.35510815
ECCENTRICITY   = .0002219
INCLINATION    = 98.8605
RA_OF_ASC_NODE = 256.3382
ARG_OF_PERICENTER = 20.7665
MEAN_ANOMALY   = 339.3609

EPHEMERIS_TYPE = 0
CLASSIFICATION_TYPE = U
NORAD_CAT_ID   = 24883
ELEMENT_SET_NO = 999
REV_AT_EPOCH   = 51173
BSTAR          = .12177E-3
MEAN_MOTION_DOT = .304E-5
MEAN_MOTION_DDOT = 0

CCSDS_OMM_VERS = 2.0
CREATION_DATE  = 
ORIGINATOR     = 

OBJECT_NAME    = SL-16 R/B
OBJECT_ID      = 1998-043G
CENTER_NAME    = EARTH
REF_FRAME      = TEME
TIME_SYSTEM    = UTC
MEAN_ELEMENT_THEORY = SGP/SGP4

EPOCH          = 2026-04-01T09:27:48.635424
MEAN_MOTION    = 14.26055074
ECCENTRICITY   = .0009053
INCLINATION    = 98.8293
RA_OF_ASC_NODE = 44.9241
ARG_OF_PERICENTER = 313.3873
MEAN_ANOMALY   = 46.6551

EPHEMERIS_TYPE = 0
CLASSIFICATION_TYPE = U
NORAD_CAT_ID   = 25400
ELEMENT_SET_NO = 999
REV_AT_EPOCH   = 44222
BSTAR          = .46695E-4
MEAN_MOTION_DOT = .66E-6
MEAN_MOTION_DDOT = 0

