COSMOS 2242             
1 22626U 93024A   26091.43519745  .00002752  00000+0  23864-3 0  9993
2 22626  82.5167 244.9539 0015294 225.3858 134.6117 14.96649544783798
SL-16 R/B               
1 22803U 93059B   26091.06287226 -.00000114  00000+0 -32747-4 0  9996
2 22803  70.9912 323.9489 0017240 183.7702 176.3295 14.17234444682705
ARIANE 40 R/B           
1 22830U 93061H   26091.46323728  .00000219  00000+0  96084-4 0  9999
2 22830  98.4875 159.8969 0010196 210.9989 149.0595 14.32873023697367
COSMOS 2278             
1 23087U 94023A   26091.51217345 -.00000092  00000+0 -23570-4 0  9997
2 23087  71.0508 127.3512 0009277 338.9736  21.1003 14.14374740648031
SL-16 R/B               
1 23088U 94023B   26091.26561283  .00000265  00000+0  16135-3 0  9991
2 23088  71.0027  23.4739 0005519 265.3378  94.7115 14.15017815649281
SL-16 R/B               
1 23343U 94074B   26091.53770197  .00000570  00000+0  82972-4 0  9999
2 23343  97.7074 121.4268 0007538 137.7539  23.4652 14.79434123690626
SL-16 R/B               
1 23405U 94077B   26091.02640826 -.00000147  00000+0 -50402-4 0  9995
2 23405  70.9828 305.4985 0001762 194.4014 165.7059 14.15568875619394
ARIANE 40+ R/B          
1 23561U 95021B   26091.46252898  .00000310  00000+0  11263-3 0  9995
2 23561  98.4458 162.6321 0007884  77.8865 292.8620 14.39788663622527
SL-16 R/B               
1 23705U 95058B   26091.38782455 -.00000167  00000+0 -60933-4 0  9994
2 23705  71.0195 132.6034 0010206  83.9566 276.2719 14.15498085571065
SL-16 R/B               
1 24298U 96051B   26091.40381293  .00000138  00000+0  10128-3 0  9990
2 24298  70.7583 127.1635 0013278 111.0059 249.2482 14.12422367524857
ORBVIEW 2 (SEASTAR)     
1 24883U 97037A   26091.41943890  .00000304  00000+0  12177-3 0  9994
2 24883  98.8605 256.3382 0002219  20.7665 339.3609 14.35510815511735
SL-16 R/B               
1 25400U 98043G   26091.39431291  .00000066  00000+0  46695-4 0  9990
2 25400  98.8293  44.9241 0009053 313.3873  46.6551 14.26055074442226
